OBJECT_NAME,OBJECT_ID,EPOCH,MEAN_MOTION,ECCENTRICITY,INCLINATION,RA_OF_ASC_NODE,ARG_OF_PERICENTER,MEAN_ANOMALY,EPHEMERIS_TYPE,CLASSIFICATION_TYPE,NORAD_CAT_ID,ELEMENT_SET_NO,REV_AT_EPOCH,BSTAR,MEAN_MOTION_DOT,MEAN_MOTION_DDOT
STARLINK-3772,2022-041AF,2026-06-18T20:04:45.298560,15.08829943,.00012686,53.1602,4.9467,90.7214,269.3923,0,U,52290,999,22977,.21049885E-4,.47E-6,0
STARLINK-3753,2022-041AH,2026-06-18T19:58:04.697184,15.08830371,.00013055,53.1602,4.9674,90.7364,269.3777,0,U,52292,999,22977,-.6792037E-5,-.396E-5,0
STARLINK-3771,2022-041AJ,2026-06-18T20:15:20.391264,15.08831292,.0001205,53.1581,4.9192,60.1798,299.9313,0,U,52293,999,22977,-.93943045E-4,-.1782E-4,0
STARLINK-3777,2022-041AK,2026-06-18T23:03:32.948064,15.08829644,.00013319,53.1606,4.3872,96.4306,263.6837,0,U,52294,999,22979,-.6694666E-5,-.394E-5,0
STARLINK-3765,2022-041AL,2026-06-18T23:19:26.904288,15.08829283,.00012172,53.1600,4.3381,89.5360,270.5771,0,U,52295,999,22979,-.19233028E-4,-.594E-5,0
STARLINK-3766,2022-041AM,2026-06-18T22:47:39.412608,15.08825840,.0001231,53.1590,4.4401,85.6949,274.4183,0,U,52296,999,22979,-.67076E-4,-.1355E-4,0
STARLINK-3758,2022-041AN,2026-06-18T23:14:08.159136,15.08837137,.00011122,53.1603,4.3553,86.5165,273.5954,0,U,52297,999,22979,.11784677E-3,.1588E-4,0
STARLINK-3760,2022-041AP,2026-06-19T05:46:14.899872,15.08820620,.00012338,53.1609,2.7467,98.0209,262.0922,0,U,52298,999,22984,-.57165919E-4,-.1197E-4,0
STARLINK-3769,2022-041AR,2026-06-19T06:28:40.524672,15.08839555,.00012327,53.1602,3.0002,90.0735,270.0398,0,U,52300,999,23106,.4586681E-5,-.215E-5,0
STARLINK-3768,2022-041AS,2026-06-18T22:58:15.112704,15.08832871,.0001334,53.1598,4.4038,86.6250,273.4894,0,U,52301,999,22979,.77577E-4,.947E-5,0
STARLINK-3564,2022-041AT,2026-06-19T08:00:01.999872,15.13728284,.00006174,53.1604,352.6690,50.9159,11.8234,0,U,52302,999,576,.4054547E-2,.74369E-3,0
STARLINK-3742,2022-041AU,2026-06-18T19:26:19.728384,15.08773499,.00012558,53.1605,5.0678,91.1356,268.9779,0,U,52303,999,23099,.94927323E-3,.14825E-3,0
STARLINK-3744,2022-041AV,2026-06-18T19:01:06.486816,15.08831615,.00013765,53.1611,355.1459,94.2966,265.8182,0,U,52304,999,22990,.1696165E-5,-.261E-5,0
STARLINK-3724,2022-041AW,2026-06-18T19:31:35.647392,15.08843922,.00009865,53.1588,5.1581,98.5272,261.5831,0,U,52305,999,22977,-.2237222E-5,-.323E-5,0
STARLINK-3747,2022-041AX,2026-06-18T17:20:25.160352,15.08840761,.00011857,53.1592,355.4590,99.9335,260.1790,0,U,52306,999,23111,.62059691E-4,.7E-5,0
STARLINK-3755,2022-041AY,2026-06-19T06:23:22.672896,15.08832222,.00012476,53.1604,3.0173,89.3321,270.7813,0,U,52307,999,22984,.46505249E-4,.452E-5,0
STARLINK-3756,2022-041BA,2026-06-19T08:00:01.999872,15.13884651,.00020322,53.1604,352.6662,72.3062,51.7348,0,U,52309,999,576,.40983444E-2,.7552E-3,0
STARLINK-3688,2022-041BB,2026-06-19T08:00:01.999872,15.14322660,.00022794,53.1603,352.7238,77.0673,71.3742,0,U,52310,999,581,.40305803E-2,.75187E-3,0
STARLINK-3750,2022-041BC,2026-06-19T05:47:36.414816,15.08856287,.0001103,53.1609,353.1293,95.5215,264.5902,0,U,52311,999,23119,.23691348E-3,.3486E-4,0
STARLINK-3752,2022-041BD,2026-06-19T04:49:18.773472,15.08841013,.00014744,53.1605,353.2602,85.2179,274.8981,0,U,52312,999,23119,-.79747344E-4,-.1557E-4,0
STARLINK-3749,2022-041BE,2026-06-19T04:54:37.370016,15.08828063,.00012709,53.1601,353.2925,87.7733,272.3404,0,U,52313,999,23119,.7505206E-5,-.169E-5,0
SUPERVIEW NEO-1 01,2022-043A,2026-06-19T07:43:04.757376,15.16532094,.00001689,97.3403,243.0335,269.3526,90.7688,0,U,52320,999,22988,.18170243E-3,.3478E-4,0
SUPERVIEW NEO-1 02,2022-043C,2026-06-19T06:54:18.234720,15.16485050,.00013618,97.3401,243.0149,21.6955,338.4336,0,U,52322,999,22989,.19816677E-3,.3794E-4,0
STARLINK-3889,2022-045A,2026-06-19T03:03:20.320992,15.08836197,.00013025,53.1592,113.6448,94.3179,265.7962,0,U,52331,999,23095,-.41261282E-4,-.945E-5,0
STARLINK-3831,2022-045B,2026-06-19T03:20:36.947328,15.08829622,.00014291,53.1605,113.5999,88.1088,272.0067,0,U,52332,999,23095,.13708655E-4,-.7E-6,0
STARLINK-3847,2022-045C,2026-06-19T06:21:33.309504,15.10439513,.00015497,53.1599,113.0005,80.7982,279.3185,0,U,52333,999,23096,.10356026E-1,.176264E-2,0
STARLINK-3880,2022-045D,2026-06-19T02:58:02.518464,15.08837044,.00013657,53.1603,113.6603,86.3870,273.7278,0,U,52334,999,23094,.75101294E-4,.907E-5,0
STARLINK-3814,2022-045E,2026-06-19T02:52:44.303808,15.08833747,.00016072,53.1610,113.6774,92.7294,267.3881,0,U,52335,999,23095,-.4149048E-5,-.354E-5,0
STARLINK-3823,2022-045F,2026-06-19T08:00:01.999872,15.19421206,.00001985,53.1602,112.2546,80.7576,271.4964,0,U,52336,999,581,.49586948E-2,.107602E-2,0
STARLINK-3797,2022-045G,2026-06-19T03:08:38.102784,15.08831319,.00014049,53.1605,113.6270,86.5632,273.5520,0,U,52337,999,23095,-.654265E-5,-.392E-5,0
