
STARLINK-3564
1 52302U 22041AT  26170.33335648  .00074369  00000+0  40545-2 0  9990
2 52302  53.1604 352.6690 0000617  50.9159  11.8234 15.13728284  5765

STARLINK-3688
1 52310U 22041BB  26170.33335648  .00075187  00000+0  40306-2 0  9993
2 52310  53.1603 352.7238 0002279  77.0673  71.3742 15.14322660  5819

STARLINK-3724
1 52305U 22041AW  26169.81360703 -.00000323  00000+0 -22372-5 0  9996
2 52305  53.1588   5.1581 0000986  98.5272 261.5831 15.08843922229778

STARLINK-3742
1 52303U 22041AU  26169.80995056  .00014825  00000+0  94927-3 0  9991
2 52303  53.1605   5.0678 0001255  91.1356 268.9779 15.08773499230993

STARLINK-3744
1 52304U 22041AV  26169.79243619 -.00000261  00000+0  16962-5 0  9996
2 52304  53.1611 355.1459 0001376  94.2966 265.8182 15.08831615229900

STARLINK-3747
1 52306U 22041AX  26169.72251343  .00000700  00000+0  62060-4 0  9990
2 52306  53.1592 355.4590 0001185  99.9335 260.1790 15.08840761231110

STARLINK-3749
1 52313U 22041BE  26170.20459919 -.00000169  00000+0  75052-5 0  9998
2 52313  53.1601 353.2925 0001270  87.7733 272.3404 15.08828063231195

STARLINK-3750
1 52311U 22041BC  26170.24139369  .00003486  00000+0  23691-3 0  9998
2 52311  53.1609 353.1293 0001103  95.5215 264.5902 15.08856287231190

STARLINK-3752
1 52312U 22041BD  26170.20091173 -.00001557  00000+0 -79747-4 0  9998
2 52312  53.1605 353.2602 0001474  85.2179 274.8981 15.08841013231190

STARLINK-3753
1 52292U 22041AH  26169.83199881 -.00000396  00000+0 -67920-5 0  9998
2 52292  53.1602   4.9674 0001305  90.7364 269.3777 15.08830371229771

STARLINK-3755
1 52307U 22041AY  26170.26623464  .00000452  00000+0  46505-4 0  9999
2 52307  53.1604   3.0173 0001247  89.3321 270.7813 15.08832222229848

STARLINK-3756
1 52309U 22041BA  26170.33335648  .00075520  00000+0  40983-2 0  9993
2 52309  53.1604 352.6662 0002032  72.3062  51.7348 15.13884651  5765

STARLINK-3758
1 52297U 22041AN  26169.96814999  .00001588  00000+0  11785-3 0  9999
2 52297  53.1603   4.3553 0001112  86.5165 273.5954 15.08837137229798

STARLINK-3760
1 52298U 22041AP  26170.24045023 -.00001197  00000+0 -57166-4 0  9999
2 52298  53.1609   2.7467 0001233  98.0209 262.0922 15.08820620229845

STARLINK-3765
1 52295U 22041AL  26169.97183917 -.00000594  00000+0 -19233-4 0  9992
2 52295  53.1600   4.3381 0001217  89.5360 270.5771 15.08829283229795

STARLINK-3766
1 52296U 22041AM  26169.94976172 -.00001355  00000+0 -67076-4 0  9997
2 52296  53.1590   4.4401 0001231  85.6949 274.4183 15.08825840229799

STARLINK-3768
1 52301U 22041AS  26169.95711936  .00000947  00000+0  77577-4 0  9991
2 52301  53.1598   4.4038 0001334  86.6250 273.4894 15.08832871229790

STARLINK-3769
1 52300U 22041AR  26170.26991348 -.00000215  00000+0  45867-5 0  9990
2 52300  53.1602   3.0002 0001232  90.0735 270.0398 15.08839555231066

STARLINK-3771
1 52293U 22041AJ  26169.84398601 -.00001782  00000+0 -93943-4 0  9994
2 52293  53.1581   4.9192 0001205  60.1798 299.9313 15.08831292229772

STARLINK-3772
1 52290U 22041AF  26169.83663540  .00000047  00000+0  21050-4 0  9998
2 52290  53.1602   4.9467 0001268  90.7214 269.3923 15.08829943229777

STARLINK-3777
1 52294U 22041AK  26169.96079801 -.00000394  00000+0 -66947-5 0  9999
2 52294  53.1606   4.3872 0001331  96.4306 263.6837 15.08829644229796

STARLINK-3797
1 52337U 22045G   26170.13099656 -.00000392  00000+0 -65427-5 0  9992
2 52337  53.1605 113.6270 0001404  86.5632 273.5520 15.08831319230953

STARLINK-3814
1 52335U 22045E   26170.11995722 -.00000354  00000+0 -41490-5 0  9999
2 52335  53.1610 113.6774 0001607  92.7294 267.3881 15.08833747230952

STARLINK-3823
1 52336U 22045F   26170.33335648  .00107602  00000+0  49587-2 0  9993
2 52336  53.1602 112.2546 0000198  80.7576 271.4964 15.19421206  5818

STARLINK-3831
1 52332U 22045B   26170.13931652 -.00000070  00000+0  13709-4 0  9995
2 52332  53.1605 113.5999 0001429  88.1088 272.0067 15.08829622230959

STARLINK-3847
1 52333U 22045C   26170.26496886  .00176264  00000+0  10356-1 0  9995
2 52333  53.1599 113.0005 0001549  80.7982 279.3185 15.10439513230960

STARLINK-3880
1 52334U 22045D   26170.12364026  .00000907  00000+0  75101-4 0  9993
2 52334  53.1603 113.6603 0001365  86.3870 273.7278 15.08837044230948

STARLINK-3889
1 52331U 22045A   26170.12731853 -.00000945  00000+0 -41261-4 0  9990
2 52331  53.1592 113.6448 0001302  94.3179 265.7962 15.08836197230951

SUPERVIEW NEO-1 01
1 52320U 22043A   26170.32158284  .00003478  00000+0  18170-3 0  9993
2 52320  97.3403 243.0335 0000168 269.3526  90.7688 15.16532094229881

SUPERVIEW NEO-1 02
1 52322U 22043C   26170.28771105  .00003794  00000+0  19817-3 0  9993
2 52322  97.3401 243.0149 0001361  21.6955 338.4336 15.16485050229897
